[Satellite]
VERSION=1.1
NAME=Foresail-1
NICKNAME=Foresail-1
TLE1=1 52766U 22057AL  25176.64799660  .13857605  27391-5  25307-3 0  9992
TLE2=2 52766  97.5832 331.2310 0012137 233.7199 258.4922 16.46795272172486
STATUS=0
